[{"OBJECT_NAME":"STARLINK-36370","OBJECT_ID":"2026-037F","EPOCH":"2026-03-08T22:00:01.999584","MEAN_MOTION":15.81912621,"ECCENTRICITY":0.0001838,"INCLINATION":42.999,"RA_OF_ASC_NODE":203.2741,"ARG_OF_PERICENTER":271.393,"MEAN_ANOMALY":289.4523,"EPHEMERIS_TYPE":0,"CLASSIFICATION_TYPE":"U","NORAD_CAT_ID":67937,"ELEMENT_SET_NO":999,"REV_AT_EPOCH":307,"BSTAR":0.0011031081,"MEAN_MOTION_DOT":0.00237066,"MEAN_MOTION_DDOT":0},{"OBJECT_NAME":"STARLINK-36371","OBJECT_ID":"2026-037G","EPOCH":"2026-03-08T22:00:01.999584","MEAN_MOTION":15.82030816,"ECCENTRICITY":0.0001555,"INCLINATION":42.9989,"RA_OF_ASC_NODE":203.2513,"ARG_OF_PERICENTER":275.9914,"MEAN_ANOMALY":293.3916,"EPHEMERIS_TYPE":0,"CLASSIFICATION_TYPE":"U","NORAD_CAT_ID":67938,"ELEMENT_SET_NO":999,"REV_AT_EPOCH":307,"BSTAR":-0.00010798413,"MEAN_MOTION_DOT":-0.00023225,"MEAN_MOTION_DDOT":0},{"OBJECT_NAME":"STARLINK-36246","OBJECT_ID":"2026-037H","EPOCH":"2026-03-08T22:00:01.999584","MEAN_MOTION":15.82066373,"ECCENTRICITY":0.00022643,"INCLINATION":42.999,"RA_OF_ASC_NODE":203.241,"ARG_OF_PERICENTER":290.9329,"MEAN_ANOMALY":282.6911,"EPHEMERIS_TYPE":0,"CLASSIFICATION_TYPE":"U","NORAD_CAT_ID":67939,"ELEMENT_SET_NO":999,"REV_AT_EPOCH":298,"BSTAR":-0.0003619132,"MEAN_MOTION_DOT":-0.00076261,"MEAN_MOTION_DDOT":0},{"OBJECT_NAME":"STARLINK-36907","OBJECT_ID":"2026-037J","EPOCH":"2026-03-08T22:00:01.999584","MEAN_MOTION":15.82500667,"ECCENTRICITY":0.00014711,"INCLINATION":42.9989,"RA_OF_ASC_NODE":203.2082,"ARG_OF_PERICENTER":282.483,"MEAN_ANOMALY":303.7248,"EPHEMERIS_TYPE":0,"CLASSIFICATION_TYPE":"U","NORAD_CAT_ID":67940,"ELEMENT_SET_NO":999,"REV_AT_EPOCH":307,"BSTAR":-0.0033524699,"MEAN_MOTION_DOT":-0.00669554,"MEAN_MOTION_DDOT":0},{"OBJECT_NAME":"STARLINK-36927","OBJECT_ID":"2026-037K","EPOCH":"2026-03-08T22:00:01.999584","MEAN_MOTION":15.82895367,"ECCENTRICITY":0.00015585,"INCLINATION":42.999,"RA_OF_ASC_NODE":203.1874,"ARG_OF_PERICENTER":286.6551,"MEAN_ANOMALY":307.8267,"EPHEMERIS_TYPE":0,"CLASSIFICATION_TYPE":"U","NORAD_CAT_ID":67941,"ELEMENT_SET_NO":999,"REV_AT_EPOCH":307,"BSTAR":-0.0056288107,"MEAN_MOTION_DOT":-0.01109414,"MEAN_MOTION_DDOT":0},{"OBJECT_NAME":"STARLINK-36914","OBJECT_ID":"2026-037L","EPOCH":"2026-03-08T22:00:01.999584","MEAN_MOTION":15.82116186,"ECCENTRICITY":0.00022325,"INCLINATION":42.9989,"RA_OF_ASC_NODE":203.2297,"ARG_OF_PERICENTER":285.7294,"MEAN_ANOMALY":292.1425,"EPHEMERIS_TYPE":0,"CLASSIFICATION_TYPE":"U","NORAD_CAT_ID":67942,"ELEMENT_SET_NO":999,"REV_AT_EPOCH":307,"BSTAR":-0.0007450047,"MEAN_MOTION_DOT":-0.00155374,"MEAN_MOTION_DDOT":0},{"OBJECT_NAME":"STARLINK-36851","OBJECT_ID":"2026-037M","EPOCH":"2026-03-08T22:00:01.999584","MEAN_MOTION":15.82297834,"ECCENTRICITY":0.00017284,"INCLINATION":42.9989,"RA_OF_ASC_NODE":203.2192,"ARG_OF_PERICENTER":294.0524,"MEAN_ANOMALY":288.0058,"EPHEMERIS_TYPE":0,"CLASSIFICATION_TYPE":"U","NORAD_CAT_ID":67943,"ELEMENT_SET_NO":999,"REV_AT_EPOCH":307,"BSTAR":-0.0020480698,"MEAN_MOTION_DOT":-0.00417188,"MEAN_MOTION_DDOT":0},{"OBJECT_NAME":"STARLINK-36892","OBJECT_ID":"2026-037N","EPOCH":"2026-03-08T22:00:01.999584","MEAN_MOTION":15.82699629,"ECCENTRICITY":0.00013572,"INCLINATION":42.9989,"RA_OF_ASC_NODE":203.1986,"ARG_OF_PERICENTER":285.4543,"MEAN_ANOMALY":304.8999,"EPHEMERIS_TYPE":0,"CLASSIFICATION_TYPE":"U","NORAD_CAT_ID":67944,"ELEMENT_SET_NO":999,"REV_AT_EPOCH":307,"BSTAR":-0.004577673,"MEAN_MOTION_DOT":-0.00898525,"MEAN_MOTION_DDOT":0},{"OBJECT_NAME":"STARLINK-36908","OBJECT_ID":"2026-037P","EPOCH":"2026-03-08T22:00:01.999584","MEAN_MOTION":15.82933044,"ECCENTRICITY":0.00017237,"INCLINATION":42.9989,"RA_OF_ASC_NODE":203.1769,"ARG_OF_PERICENTER":288.6015,"MEAN_ANOMALY":310.1251,"EPHEMERIS_TYPE":0,"CLASSIFICATION_TYPE":"U","NORAD_CAT_ID":67945,"ELEMENT_SET_NO":999,"REV_AT_EPOCH":307,"BSTAR":-0.0058322326,"MEAN_MOTION_DOT":-0.01147246,"MEAN_MOTION_DDOT":0},{"OBJECT_NAME":"STARLINK-36909","OBJECT_ID":"2026-037Q","EPOCH":"2026-03-08T22:00:01.999584","MEAN_MOTION":15.83225619,"ECCENTRICITY":0.00013687,"INCLINATION":42.9988,"RA_OF_ASC_NODE":203.167,"ARG_OF_PERICENTER":279.2898,"MEAN_ANOMALY":323.4442,"EPHEMERIS_TYPE":0,"CLASSIFICATION_TYPE":"U","NORAD_CAT_ID":67946,"ELEMENT_SET_NO":999,"REV_AT_EPOCH":307,"BSTAR":-0.00703669,"MEAN_MOTION_DOT":-0.0137087,"MEAN_MOTION_DDOT":0},{"OBJECT_NAME":"STARLINK-36920","OBJECT_ID":"2026-037R","EPOCH":"2026-03-08T22:00:01.999584","MEAN_MOTION":15.83346559,"ECCENTRICITY":0.0001326,"INCLINATION":42.9991,"RA_OF_ASC_NODE":203.1563,"ARG_OF_PERICENTER":283.8237,"MEAN_ANOMALY":323.0794,"EPHEMERIS_TYPE":0,"CLASSIFICATION_TYPE":"U","NORAD_CAT_ID":67947,"ELEMENT_SET_NO":999,"REV_AT_EPOCH":307,"BSTAR":-0.0076461198,"MEAN_MOTION_DOT":-0.01512006,"MEAN_MOTION_DDOT":0},{"OBJECT_NAME":"STARLINK-36873","OBJECT_ID":"2026-037S","EPOCH":"2026-03-08T22:00:01.999584","MEAN_MOTION":15.83527883,"ECCENTRICITY":0.00013868,"INCLINATION":42.999,"RA_OF_ASC_NODE":203.1461,"ARG_OF_PERICENTER":276.443,"MEAN_ANOMALY":334.5096,"EPHEMERIS_TYPE":0,"CLASSIFICATION_TYPE":"U","NORAD_CAT_ID":67948,"ELEMENT_SET_NO":999,"REV_AT_EPOCH":307,"BSTAR":-0.0080185693,"MEAN_MOTION_DOT":-0.01588556,"MEAN_MOTION_DDOT":0},{"OBJECT_NAME":"STARLINK-36863","OBJECT_ID":"2026-037T","EPOCH":"2026-03-08T22:00:01.999584","MEAN_MOTION":15.83577479,"ECCENTRICITY":0.00014669,"INCLINATION":42.9992,"RA_OF_ASC_NODE":203.1356,"ARG_OF_PERICENTER":279.5951,"MEAN_ANOMALY":335.54,"EPHEMERIS_TYPE":0,"CLASSIFICATION_TYPE":"U","NORAD_CAT_ID":67949,"ELEMENT_SET_NO":999,"REV_AT_EPOCH":307,"BSTAR":-0.007888558,"MEAN_MOTION_DOT":-0.01569349,"MEAN_MOTION_DDOT":0},{"OBJECT_NAME":"STARLINK-36887","OBJECT_ID":"2026-037U","EPOCH":"2026-03-08T22:00:01.999584","MEAN_MOTION":15.83636724,"ECCENTRICITY":0.00013165,"INCLINATION":42.9991,"RA_OF_ASC_NODE":203.1249,"ARG_OF_PERICENTER":270.1819,"MEAN_ANOMALY":349.153,"EPHEMERIS_TYPE":0,"CLASSIFICATION_TYPE":"U","NORAD_CAT_ID":67950,"ELEMENT_SET_NO":999,"REV_AT_EPOCH":307,"BSTAR":-0.0080151495,"MEAN_MOTION_DOT":-0.01595189,"MEAN_MOTION_DDOT":0},{"OBJECT_NAME":"STARLINK-36897","OBJECT_ID":"2026-037V","EPOCH":"2026-03-08T22:00:01.999584","MEAN_MOTION":15.83750592,"ECCENTRICITY":0.00012262,"INCLINATION":42.9992,"RA_OF_ASC_NODE":203.1149,"ARG_OF_PERICENTER":265.4915,"MEAN_ANOMALY":357.9367,"EPHEMERIS_TYPE":0,"CLASSIFICATION_TYPE":"U","NORAD_CAT_ID":67951,"ELEMENT_SET_NO":999,"REV_AT_EPOCH":307,"BSTAR":-0.0080832633,"MEAN_MOTION_DOT":-0.01614635,"MEAN_MOTION_DDOT":0},{"OBJECT_NAME":"STARLINK-36381","OBJECT_ID":"2026-037W","EPOCH":"2026-03-08T22:00:01.999584","MEAN_MOTION":15.84029993,"ECCENTRICITY":0.0001643,"INCLINATION":42.9992,"RA_OF_ASC_NODE":203.0948,"ARG_OF_PERICENTER":278.7232,"MEAN_ANOMALY":352.7244,"EPHEMERIS_TYPE":0,"CLASSIFICATION_TYPE":"U","NORAD_CAT_ID":67952,"ELEMENT_SET_NO":999,"REV_AT_EPOCH":307,"BSTAR":-0.0079927803,"MEAN_MOTION_DOT":-0.0161815,"MEAN_MOTION_DDOT":0}]
